EUTELSAT 7A             
1 28187U 04008A   25350.38630016  .00000122  00000+0  00000+0 0  9993
2 28187   5.3669  74.2083 0001719 248.1207 122.8168  1.00274025 79525
EUTELSAT 174A           
1 28924U 05052A   25350.87641928  .00000032  00000+0  00000+0 0  9990
2 28924   3.7583  78.8052 0006124 187.0403 309.4795  1.00275094 50504
EUTELSAT HOTBIRD 13B    
1 29270U 06032A   25351.20516052  .00000179  00000+0  00000+0 0  9993
2 29270   1.1917  84.3359 0003531 176.8054 291.8788  1.00272287 45489
EUTELSAT HOTBIRD 13C    
1 33459U 08065A   25350.33256649 -.00000262  00000+0  00000+0 0  9995
2 33459   2.4793  81.4240 0008775 145.5585 287.7034  1.00171829 45515
EUTELSAT 36B            
1 36101U 09065A   25351.15322250  .00000137  00000+0  00000+0 0  9996
2 36101   0.0459  27.0278 0005650 238.0224 286.6524  1.00269078 58889
EUTELSAT KA-SAT 9A      
1 37258U 10069A   25350.70099707  .00000085  00000+0  00000+0 0  9996
2 37258   0.0492 339.4824 0001851 201.6472 165.8303  1.00269434 42171
EUTELSAT 7 WEST A       
1 37816U 11051A   25350.98313443 -.00000036  00000+0  00000+0 0  9991
2 37816   0.0619 351.8066 0005306 236.6313 204.0496  1.00272010 52050
EUTELSAT 16A            
1 37836U 11057A   25351.20391859  .00000129  00000+0  00000+0 0  9994
2 37836   0.0638 330.4647 0006185 298.8882 266.1668  1.00274433  5507
